[{"OBJECT_NAME":"ICESAT-2","OBJECT_ID":"2018-070A","EPOCH":"2026-03-09T22:54:12.225888","MEAN_MOTION":15.28328617,"ECCENTRICITY":0.00038245,"INCLINATION":91.9993,"RA_OF_ASC_NODE":264.2397,"ARG_OF_PERICENTER":123.8941,"MEAN_ANOMALY":236.2673,"EPHEMERIS_TYPE":0,"CLASSIFICATION_TYPE":"U","NORAD_CAT_ID":43613,"ELEMENT_SET_NO":999,"REV_AT_EPOCH":41730,"BSTAR":0.00014022643,"MEAN_MOTION_DOT":3.87e-5,"MEAN_MOTION_DDOT":0},{"OBJECT_NAME":"STARLINK-31767","OBJECT_ID":"2024-080E","EPOCH":"2026-03-09T06:03:18.713952","MEAN_MOTION":15.27579319,"ECCENTRICITY":0.00012597,"INCLINATION":43.0049,"RA_OF_ASC_NODE":40.5604,"ARG_OF_PERICENTER":263.3958,"MEAN_ANOMALY":96.675,"EPHEMERIS_TYPE":0,"CLASSIFICATION_TYPE":"U","NORAD_CAT_ID":59605,"ELEMENT_SET_NO":999,"REV_AT_EPOCH":10446,"BSTAR":6.533079e-6,"MEAN_MOTION_DOT":-8.2e-7,"MEAN_MOTION_DDOT":0}]
